{
  "type": "FeatureCollection",
  "features": [
    {
      "type": "Feature",
      "properties": {
        "norad_id": 38067,
        "name": "COSMOS 2251 DEB",
        "group": "cosmos-2251-debris",
        "lat": 16.586830504340533,
        "lon": 99.09609341456834,
        "alt_km": 688.9594358325667,
        "timestamp": "2025-12-07T18:50:17.112872+00:00",
        "meta_object_name": "COSMOS 2251 DEB",
        "meta_object_id": "1993-036BRZ",
        "meta_epoch": "2025-11-29T04:46:36.876288",
        "meta_mean_motion": 14.61044936,
        "meta_eccentricity": 0.00691529,
        "meta_inclination": 74.017,
        "meta_ra_of_asc_node": 300.4181,
        "meta_arg_of_pericenter": 91.9303,
        "meta_mean_anomaly": 288.2542,
        "meta_ephemeris_type": 0,
        "meta_classification_type": "U",
        "meta_norad_cat_id": 38067,
        "meta_element_set_no": 999,
        "meta_rev_at_epoch": 62358,
        "meta_bstar": 0.00037425936,
        "meta_mean_motion_dot": 1.87e-05,
        "meta_mean_motion_ddot": 0,
        "tle_line1": "1 38067U 93036BRZ 25333.19903792  .00001870  00000+0  37426-3 0  9991",
        "tle_line2": "2 38067  74.0170 300.4181 0069152  91.9303 288.2542 14.61044936623583"
      },
      "geometry": {
        "type": "Point",
        "coordinates": [
          99.09609341456834,
          16.586830504340533
        ]
      }
    },
    {
      "type": "Feature",
      "properties": {
        "norad_id": 38068,
        "name": "COSMOS 2251 DEB",
        "group": "cosmos-2251-debris",
        "lat": 12.768635812332402,
        "lon": -38.92619203471307,
        "alt_km": 758.3689917104421,
        "timestamp": "2025-12-07T18:50:17.112882+00:00",
        "meta_object_name": "COSMOS 2251 DEB",
        "meta_object_id": "1993-036BSA",
        "meta_epoch": "2025-11-26T00:12:22.263264",
        "meta_mean_motion": 14.35960004,
        "meta_eccentricity": 0.00240903,
        "meta_inclination": 74.0219,
        "meta_ra_of_asc_node": 338.9788,
        "meta_arg_of_pericenter": 72.1007,
        "meta_mean_anomaly": 288.2769,
        "meta_ephemeris_type": 0,
        "meta_classification_type": "U",
        "meta_norad_cat_id": 38068,
        "meta_element_set_no": 999,
        "meta_rev_at_epoch": 66406,
        "meta_bstar": 0.00028750999,
        "meta_mean_motion_dot": 8.11e-06,
        "meta_mean_motion_ddot": 0,
        "tle_line1": "1 38068U 93036BSA 25330.00859101  .00000811  00000+0  28751-3 0  9998",
        "tle_line2": "2 38068  74.0219 338.9788 0024090  72.1007 288.2769 14.35960004664064"
      },
      "geometry": {
        "type": "Point",
        "coordinates": [
          -38.92619203471307,
          12.768635812332402
        ]
      }
    },
    {
      "type": "Feature",
      "properties": {
        "norad_id": 38197,
        "name": "COSMOS 2251 DEB",
        "group": "cosmos-2251-debris",
        "lat": 46.55007311112131,
        "lon": 24.482903739551553,
        "alt_km": 731.1061467022773,
        "timestamp": "2025-12-07T18:50:17.112892+00:00",
        "meta_object_name": "COSMOS 2251 DEB",
        "meta_object_id": "1993-036BSM",
        "meta_epoch": "2025-12-06T08:23:38.720544",
        "meta_mean_motion": 14.73443974,
        "meta_eccentricity": 0.01278233,
        "meta_inclination": 73.9374,
        "meta_ra_of_asc_node": 9.5906,
        "meta_arg_of_pericenter": 248.6573,
        "meta_mean_anomaly": 110.0918,
        "meta_ephemeris_type": 0,
        "meta_classification_type": "U",
        "meta_norad_cat_id": 38197,
        "meta_element_set_no": 999,
        "meta_rev_at_epoch": 85661,
        "meta_bstar": 0.0077538955,
        "meta_mean_motion_dot": 0.00057752,
        "meta_mean_motion_ddot": 0,
        "tle_line1": "1 38197U 93036BSM 25340.34975371  .00057752  00000+0  77539-2 0  9990",
        "tle_line2": "2 38197  73.9374   9.5906 0127823 248.6573 110.0918 14.73443974856612"
      },
      "geometry": {
        "type": "Point",
        "coordinates": [
          24.482903739551553,
          46.55007311112131
        ]
      }
    },
    {
      "type": "Feature",
      "properties": {
        "norad_id": 38199,
        "name": "COSMOS 2251 DEB",
        "group": "cosmos-2251-debris",
        "lat": -19.47269240259583,
        "lon": 64.48982076536805,
        "alt_km": 762.2382685079701,
        "timestamp": "2025-12-07T18:50:17.112902+00:00",
        "meta_object_name": "COSMOS 2251 DEB",
        "meta_object_id": "1993-036BSP",
        "meta_epoch": "2025-12-06T21:49:14.439360",
        "meta_mean_motion": 13.64783604,
        "meta_eccentricity": 0.03693827,
        "meta_inclination": 73.9557,
        "meta_ra_of_asc_node": 71.7677,
        "meta_arg_of_pericenter": 359.4298,
        "meta_mean_anomaly": 0.6342,
        "meta_ephemeris_type": 0,
        "meta_classification_type": "U",
        "meta_norad_cat_id": 38199,
        "meta_element_set_no": 999,
        "meta_rev_at_epoch": 60942,
        "meta_bstar": 0.00070508204,
        "meta_mean_motion_dot": 8.82e-06,
        "meta_mean_motion_ddot": 0,
        "tle_line1": "1 38199U 93036BSP 25340.90919490  .00000882  00000+0  70508-3 0  9996",
        "tle_line2": "2 38199  73.9557  71.7677 0369382 359.4298   0.6342 13.64783604609422"
      },
      "geometry": {
        "type": "Point",
        "coordinates": [
          64.48982076536805,
          -19.47269240259583
        ]
      }
    },
    {
      "type": "Feature",
      "properties": {
        "norad_id": 38208,
        "name": "COSMOS 2251 DEB",
        "group": "cosmos-2251-debris",
        "lat": -1.2098190108141704,
        "lon": -90.90452028107617,
        "alt_km": 618.4557034383097,
        "timestamp": "2025-12-07T18:50:17.112912+00:00",
        "meta_object_name": "COSMOS 2251 DEB",
        "meta_object_id": "1993-036BSY",
        "meta_epoch": "2025-12-05T14:19:12.971424",
        "meta_mean_motion": 14.83431595,
        "meta_eccentricity": 0.00033607,
        "meta_inclination": 74.0074,
        "meta_ra_of_asc_node": 93.0882,
        "meta_arg_of_pericenter": 176.5145,
        "meta_mean_anomaly": 202.8392,
        "meta_ephemeris_type": 0,
        "meta_classification_type": "U",
        "meta_norad_cat_id": 38208,
        "meta_element_set_no": 999,
        "meta_rev_at_epoch": 71053,
        "meta_bstar": 0.0048604025,
        "meta_mean_motion_dot": 0.00040129,
        "meta_mean_motion_ddot": 0,
        "tle_line1": "1 38208U 93036BSY 25339.59667791  .00040129  00000+0  48604-2 0  9993",
        "tle_line2": "2 38208  74.0074  93.0882 0003360 176.5145 202.8392 14.83431595710531"
      },
      "geometry": {
        "type": "Point",
        "coordinates": [
          -90.90452028107617,
          -1.2098190108141704
        ]
      }
    },
    {
      "type": "Feature",
      "properties": {
        "norad_id": 38212,
        "name": "COSMOS 2251 DEB",
        "group": "cosmos-2251-debris",
        "lat": -57.15592020799118,
        "lon": -67.39095727385339,
        "alt_km": 638.4741260466399,
        "timestamp": "2025-12-07T18:50:17.112922+00:00",
        "meta_object_name": "COSMOS 2251 DEB",
        "meta_object_id": "1993-036BTC",
        "meta_epoch": "2025-12-06T01:08:07.179648",
        "meta_mean_motion": 14.77609571,
        "meta_eccentricity": 0.00929618,
        "meta_inclination": 74.0526,
        "meta_ra_of_asc_node": 89.7222,
        "meta_arg_of_pericenter": 158.629,
        "meta_mean_anomaly": 201.8809,
        "meta_ephemeris_type": 0,
        "meta_classification_type": "U",
        "meta_norad_cat_id": 38212,
        "meta_element_set_no": 999,
        "meta_rev_at_epoch": 81211,
        "meta_bstar": 0.00094935233,
        "meta_mean_motion_dot": 7.267e-05,
        "meta_mean_motion_ddot": 0,
        "tle_line1": "1 38212U 93036BTC 25340.04730532  .00007267  00000+0  94935-3 0  9999",
        "tle_line2": "2 38212  74.0526  89.7222 0092961 158.6290 201.8809 14.77609571812118"
      },
      "geometry": {
        "type": "Point",
        "coordinates": [
          -67.39095727385339,
          -57.15592020799118
        ]
      }
    },
    {
      "type": "Feature",
      "properties": {
        "norad_id": 38220,
        "name": "COSMOS 2251 DEB",
        "group": "cosmos-2251-debris",
        "lat": 55.549677257387884,
        "lon": -126.43420454060232,
        "alt_km": 582.828698024955,
        "timestamp": "2025-12-07T18:50:17.112932+00:00",
        "meta_object_name": "COSMOS 2251 DEB",
        "meta_object_id": "1993-036BTL",
        "meta_epoch": "2025-12-06T00:28:04.464768",
        "meta_mean_motion": 14.92263375,
        "meta_eccentricity": 0.00038963,
        "meta_inclination": 74.0153,
        "meta_ra_of_asc_node": 81.8134,
        "meta_arg_of_pericenter": 78.0872,
        "meta_mean_anomaly": 282.0747,
        "meta_ephemeris_type": 0,
        "meta_classification_type": "U",
        "meta_norad_cat_id": 38220,
        "meta_element_set_no": 999,
        "meta_rev_at_epoch": 71270,
        "meta_bstar": 0.0049211275,
        "meta_mean_motion_dot": 0.00050569,
        "meta_mean_motion_ddot": 0,
        "tle_line1": "1 38220U 93036BTL 25340.01949612  .00050569  00000+0  49211-2 0  9995",
        "tle_line2": "2 38220  74.0153  81.8134 0003896  78.0872 282.0747 14.92263375712709"
      },
      "geometry": {
        "type": "Point",
        "coordinates": [
          -126.43420454060232,
          55.549677257387884
        ]
      }
    }
  ]
}